[{"OBJECT_NAME":"STARLINK-37117","OBJECT_ID":"2026-053F","EPOCH":"2026-03-23T18:00:02.999808","MEAN_MOTION":15.97243516,"ECCENTRICITY":0.00013689,"INCLINATION":97.279,"RA_OF_ASC_NODE":317.6005,"ARG_OF_PERICENTER":81.8358,"MEAN_ANOMALY":334.8069,"EPHEMERIS_TYPE":0,"CLASSIFICATION_TYPE":"U","NORAD_CAT_ID":68212,"ELEMENT_SET_NO":999,"REV_AT_EPOCH":227,"BSTAR":-0.0049245031,"MEAN_MOTION_DOT":-0.02117499,"MEAN_MOTION_DDOT":0.0012863712},{"OBJECT_NAME":"STARLINK-37116","OBJECT_ID":"2026-053G","EPOCH":"2026-03-23T18:00:02.999808","MEAN_MOTION":15.97388703,"ECCENTRICITY":0.00014612,"INCLINATION":97.2785,"RA_OF_ASC_NODE":317.6008,"ARG_OF_PERICENTER":74.3274,"MEAN_ANOMALY":344.1131,"EPHEMERIS_TYPE":0,"CLASSIFICATION_TYPE":"U","NORAD_CAT_ID":68213,"ELEMENT_SET_NO":999,"REV_AT_EPOCH":227,"BSTAR":-0.0048764313,"MEAN_MOTION_DOT":-0.02113601,"MEAN_MOTION_DDOT":0.0012839935},{"OBJECT_NAME":"STARLINK-35854","OBJECT_ID":"2026-053H","EPOCH":"2026-03-23T18:00:02.999808","MEAN_MOTION":15.97549801,"ECCENTRICITY":0.00014633,"INCLINATION":97.2784,"RA_OF_ASC_NODE":317.6018,"ARG_OF_PERICENTER":76.1563,"MEAN_ANOMALY":344.4394,"EPHEMERIS_TYPE":0,"CLASSIFICATION_TYPE":"U","NORAD_CAT_ID":68214,"ELEMENT_SET_NO":999,"REV_AT_EPOCH":203,"BSTAR":-0.0049070318,"MEAN_MOTION_DOT":-0.021454,"MEAN_MOTION_DDOT":0.0013237414},{"OBJECT_NAME":"STARLINK-36272","OBJECT_ID":"2026-053J","EPOCH":"2026-03-23T18:00:02.999808","MEAN_MOTION":15.97677496,"ECCENTRICITY":0.00013198,"INCLINATION":97.2783,"RA_OF_ASC_NODE":317.6025,"ARG_OF_PERICENTER":74.6837,"MEAN_ANOMALY":347.7178,"EPHEMERIS_TYPE":0,"CLASSIFICATION_TYPE":"U","NORAD_CAT_ID":68215,"ELEMENT_SET_NO":999,"REV_AT_EPOCH":216,"BSTAR":-0.0047595252,"MEAN_MOTION_DOT":-0.02095967,"MEAN_MOTION_DDOT":0.0012678016},{"OBJECT_NAME":"STARLINK-37014","OBJECT_ID":"2026-053K","EPOCH":"2026-03-23T18:00:02.999808","MEAN_MOTION":15.97845911,"ECCENTRICITY":0.00013998,"INCLINATION":97.2782,"RA_OF_ASC_NODE":317.6033,"ARG_OF_PERICENTER":77.5243,"MEAN_ANOMALY":347.0672,"EPHEMERIS_TYPE":0,"CLASSIFICATION_TYPE":"U","NORAD_CAT_ID":68216,"ELEMENT_SET_NO":999,"REV_AT_EPOCH":227,"BSTAR":-0.004823366,"MEAN_MOTION_DOT":-0.02143391,"MEAN_MOTION_DDOT":0.001325936},{"OBJECT_NAME":"STARLINK-37011","OBJECT_ID":"2026-053L","EPOCH":"2026-03-23T18:00:02.999808","MEAN_MOTION":15.97987718,"ECCENTRICITY":0.00014774,"INCLINATION":97.2783,"RA_OF_ASC_NODE":317.6044,"ARG_OF_PERICENTER":79.6243,"MEAN_ANOMALY":346.7601,"EPHEMERIS_TYPE":0,"CLASSIFICATION_TYPE":"U","NORAD_CAT_ID":68217,"ELEMENT_SET_NO":999,"REV_AT_EPOCH":227,"BSTAR":-0.0047830603,"MEAN_MOTION_DOT":-0.02142179,"MEAN_MOTION_DDOT":0.0013266988},{"OBJECT_NAME":"STARLINK-37108","OBJECT_ID":"2026-053M","EPOCH":"2026-03-23T18:00:02.999808","MEAN_MOTION":15.98101819,"ECCENTRICITY":0.00014417,"INCLINATION":97.2782,"RA_OF_ASC_NODE":317.6049,"ARG_OF_PERICENTER":91.6419,"MEAN_ANOMALY":336.1732,"EPHEMERIS_TYPE":0,"CLASSIFICATION_TYPE":"U","NORAD_CAT_ID":68218,"ELEMENT_SET_NO":999,"REV_AT_EPOCH":227,"BSTAR":-0.0046213359,"MEAN_MOTION_DOT":-0.02083363,"MEAN_MOTION_DDOT":0.0012594443},{"OBJECT_NAME":"STARLINK-37106","OBJECT_ID":"2026-053N","EPOCH":"2026-03-23T18:00:02.999808","MEAN_MOTION":15.98238011,"ECCENTRICITY":0.00014339,"INCLINATION":97.2782,"RA_OF_ASC_NODE":317.6056,"ARG_OF_PERICENTER":76.9815,"MEAN_ANOMALY":352.6288,"EPHEMERIS_TYPE":0,"CLASSIFICATION_TYPE":"U","NORAD_CAT_ID":68219,"ELEMENT_SET_NO":999,"REV_AT_EPOCH":227,"BSTAR":-0.0045725475,"MEAN_MOTION_DOT":-0.02076994,"MEAN_MOTION_DDOT":0.0012540855},{"OBJECT_NAME":"STARLINK-37030","OBJECT_ID":"2026-053P","EPOCH":"2026-03-23T18:00:02.999808","MEAN_MOTION":15.98545768,"ECCENTRICITY":0.0001429,"INCLINATION":97.2777,"RA_OF_ASC_NODE":317.6071,"ARG_OF_PERICENTER":83.0242,"MEAN_ANOMALY":350.5991,"EPHEMERIS_TYPE":0,"CLASSIFICATION_TYPE":"U","NORAD_CAT_ID":68220,"ELEMENT_SET_NO":999,"REV_AT_EPOCH":227,"BSTAR":-0.0045945945,"MEAN_MOTION_DOT":-0.02122435,"MEAN_MOTION_DDOT":0.0013119051},{"OBJECT_NAME":"STARLINK-37012","OBJECT_ID":"2026-053Q","EPOCH":"2026-03-23T18:00:02.999808","MEAN_MOTION":15.98396022,"ECCENTRICITY":0.00014487,"INCLINATION":97.2778,"RA_OF_ASC_NODE":317.6063,"ARG_OF_PERICENTER":76.8136,"MEAN_ANOMALY":354.7645,"EPHEMERIS_TYPE":0,"CLASSIFICATION_TYPE":"U","NORAD_CAT_ID":68221,"ELEMENT_SET_NO":999,"REV_AT_EPOCH":227,"BSTAR":-0.0046197753,"MEAN_MOTION_DOT":-0.02116487,"MEAN_MOTION_DDOT":0.0013025569},{"OBJECT_NAME":"STARLINK-37110","OBJECT_ID":"2026-053R","EPOCH":"2026-03-23T18:00:02.999808","MEAN_MOTION":15.9865354,"ECCENTRICITY":0.00015176,"INCLINATION":97.2778,"RA_OF_ASC_NODE":317.6079,"ARG_OF_PERICENTER":74.1388,"MEAN_ANOMALY":1.4006,"EPHEMERIS_TYPE":0,"CLASSIFICATION_TYPE":"U","NORAD_CAT_ID":68222,"ELEMENT_SET_NO":999,"REV_AT_EPOCH":227,"BSTAR":-0.0044148317,"MEAN_MOTION_DOT":-0.02052344,"MEAN_MOTION_DDOT":0.0012317644},{"OBJECT_NAME":"STARLINK-37025","OBJECT_ID":"2026-053S","EPOCH":"2026-03-23T18:00:02.999808","MEAN_MOTION":15.98824484,"ECCENTRICITY":0.00014555,"INCLINATION":97.2775,"RA_OF_ASC_NODE":317.6083,"ARG_OF_PERICENTER":79.8178,"MEAN_ANOMALY":357.7946,"EPHEMERIS_TYPE":0,"CLASSIFICATION_TYPE":"U","NORAD_CAT_ID":68223,"ELEMENT_SET_NO":999,"REV_AT_EPOCH":227,"BSTAR":-0.0045024124,"MEAN_MOTION_DOT":-0.02112431,"MEAN_MOTION_DDOT":0.0013043558},{"OBJECT_NAME":"STARLINK-36977","OBJECT_ID":"2026-053T","EPOCH":"2026-03-23T18:00:02.999808","MEAN_MOTION":15.98959351,"ECCENTRICITY":0.0001484,"INCLINATION":97.277,"RA_OF_ASC_NODE":317.6091,"ARG_OF_PERICENTER":79.1251,"MEAN_ANOMALY":0.2391,"EPHEMERIS_TYPE":0,"CLASSIFICATION_TYPE":"U","NORAD_CAT_ID":68224,"ELEMENT_SET_NO":999,"REV_AT_EPOCH":216,"BSTAR":-0.0044584457,"MEAN_MOTION_DOT":-0.0210764,"MEAN_MOTION_DDOT":0.001300763},{"OBJECT_NAME":"STARLINK-36960","OBJECT_ID":"2026-053U","EPOCH":"2026-03-23T18:00:02.999808","MEAN_MOTION":15.99089223,"ECCENTRICITY":0.0001395,"INCLINATION":97.2771,"RA_OF_ASC_NODE":317.6098,"ARG_OF_PERICENTER":78.0835,"MEAN_ANOMALY":2.989,"EPHEMERIS_TYPE":0,"CLASSIFICATION_TYPE":"U","NORAD_CAT_ID":68225,"ELEMENT_SET_NO":999,"REV_AT_EPOCH":225,"BSTAR":-0.0044054649,"MEAN_MOTION_DOT":-0.02097811,"MEAN_MOTION_DDOT":0.0012911383},{"OBJECT_NAME":"STARLINK-37038","OBJECT_ID":"2026-053V","EPOCH":"2026-03-23T18:00:02.999808","MEAN_MOTION":15.99375706,"ECCENTRICITY":0.00014356,"INCLINATION":97.2773,"RA_OF_ASC_NODE":317.6118,"ARG_OF_PERICENTER":77.2974,"MEAN_ANOMALY":7.7113,"EPHEMERIS_TYPE":0,"CLASSIFICATION_TYPE":"U","NORAD_CAT_ID":68226,"ELEMENT_SET_NO":999,"REV_AT_EPOCH":225,"BSTAR":-0.0043512046,"MEAN_MOTION_DOT":-0.02105406,"MEAN_MOTION_DDOT":0.0013045785},{"OBJECT_NAME":"STARLINK-37083","OBJECT_ID":"2026-053W","EPOCH":"2026-03-17T22:00:03.000096","MEAN_MOTION":16.09297729,"ECCENTRICITY":0.0011267,"INCLINATION":97.2838,"RA_OF_ASC_NODE":311.1986,"ARG_OF_PERICENTER":270.0799,"MEAN_ANOMALY":280.1631,"EPHEMERIS_TYPE":0,"CLASSIFICATION_TYPE":"U","NORAD_CAT_ID":68227,"ELEMENT_SET_NO":999,"REV_AT_EPOCH":131,"BSTAR":0.00050505,"MEAN_MOTION_DOT":0.00451132,"MEAN_MOTION_DDOT":0.00010337}]
